FLORIPASAT-1            
1 44885U 19093G   26194.30532566  .00002512  00000+0  18554-3 0  9998
2 44885  97.7935 288.7329 0010921 349.5764  10.5233 15.04134158356573
SHUNTIAN                
1 44886U 19093H   26194.24039912  .00000943  00000+0  90917-4 0  9999
2 44886  97.8009 282.2695 0011155 344.0967  15.9901 14.95271713356071
ELEKTRO-L 3             
1 44903U 19095A   26194.19087578 -.00000099  00000+0  00000+0 0  9998
2 44903   0.3204  82.1359 0001126  20.2240 333.4139  1.00271071 23964
GONETS-M 14             
1 44905U 19096A   26194.29061124  .00000086  00000+0  54827-3 0  9996
2 44905  82.5228  68.4568 0014395  94.2317 266.0409 12.42870784296924
GONETS-M 15             
1 44906U 19096B   26194.31995479  .00000030  00000+0  14274-3 0  9990
2 44906  82.5248  68.9042 0016047 116.0769 244.1965 12.42882917296890
GONETS-M 16             
1 44907U 19096C   26194.26527957 -.00000011  00000+0 -14858-3 0  9996
2 44907  82.5193  67.8781 0010932 155.4291 204.7312 12.42892103296876
RS-44 & BREEZE-KM R/B   
1 44909U 19096E   26194.27389624  .00000003  00000+0 -40731-4 0  9996
2 44909  82.5240 322.3706 0218552  83.4628 279.1302 12.79748945305688
JILIN-1 KUANFU 01       
1 45016U 20003A   26194.24857480  .00001493  00000+0  93485-4 0  9990
2 45016  97.5021 267.6961 0009087 204.0732 156.0075 15.10860868359263
XINGYUN-2 01            
1 45602U 20028A   26194.28535324  .00001152  00000+0  70927-4 0  9990
2 45602  97.4873 186.1710 0010921 109.1763 251.0651 15.11911577338788
XINGYUN-2 02            
1 45603U 20028B   26194.26866361  .00001271  00000+0  78466-4 0  9995
2 45603  97.5077 199.8030 0010912 172.0760 188.0645 15.11636423338773
HAIYANG-1D              
1 45721U 20036A   26194.27507566  .00000234  00000+0  98687-4 0  9990
2 45721  98.4552 135.3884 0004065  74.1614 286.0019 14.34182208318713
M2 PATHFINDER           
1 45727U 20037E   26193.98130639  .00000905  00000+0  68591-4 0  9993
2 45727  97.8146  25.5047 0013089  69.3329 290.9298 15.04787964329372
GAOFEN DUOMO (GFDM)     
1 45856U 20042A   26194.29145378  .00000164  00000+0  30245-4 0  9995
2 45856  97.7740 253.2267 0010806 356.8939   3.2202 14.76913331324869
ZIYUAN 3-03 (ZY 3-03)   
1 45939U 20051A   26194.29638587  .00000098  00000+0  75537-5 0  9996
2 45939  97.5373 261.3128 0002727 256.2584 103.8348 15.21191404331315
NEMO-HD                 
1 46277U 20061F   26194.29822244  .00006938  00000+0  14847-3 0  9992
2 46277  97.1911 255.9938 0000977  90.8031 269.3330 15.45112234326017
NAPA-1                  
1 46320U 20061BA  26194.29766247  .00055487  00000+0  42889-3 0  9991
2 46320  97.2446 269.4021 0002522 177.0345 183.0934 15.71745164325831
JILIN-1 GAOFEN 3E       
1 46457U 20065D   26194.30445918  .00050839  00000+0  47578-3 0  9993
2 46457  97.2216 247.5759 0010571  78.4074 281.8373 15.67034486323844
JILIN-1 GAOFEN 3F       
1 46458U 20065E   26194.31510481  .00043780  00000+0  46633-3 0  9991
2 46458  97.2175 244.7880 0011859  64.4981 295.7503 15.63785304323785
JILIN-1 GAOFEN 3G       
1 46459U 20065F   26194.28013702  .00085992  00000+0  53728-3 0  9996
2 46459  97.2237 252.0359 0005163 283.7429  76.3262 15.76597910324045
JILIN-1 GAOFEN 3H       
1 46460U 20065G   26194.31801193  .00067383  00000+0  51359-3 0  9993
2 46460  97.2181 248.2249 0006137 208.4097 151.6833 15.72016319323985
HAIYANG-2C              
1 46469U 20066A   26194.26416911 -.00000167  00000+0 -77972-4 0  9996
2 46469  65.9957 150.3579 0007733 237.1603 122.8722 13.83372406293100
HJ-2A                   
1 46478U 20067A   26194.32342565  .00000561  00000+0  87611-4 0  9994
2 46478  97.8827 272.0770 0003999 160.8198 199.3163 14.76548429312110
HJ-2B                   
1 46479U 20067B   26194.29213456 -.00000040  00000+0  14451-5 0  9993
2 46479  97.8891 273.0892 0001902 106.6607 253.4812 14.76508044312115
GONETS-M 17             
1 46486U 20068A   26194.29070065  .00000011  00000+0  87253-5 0  9996
2 46486  82.5004 331.2624 0021901 340.8964  19.1292 12.42874158262407
GONETS-M 18             
1 46487U 20068B   26194.33484531  .00000055  00000+0  32933-3 0  9990
2 46487  82.4958 330.3430 0019135 337.3968  22.6267 12.42875133262394
GONETS-M 19             
1 46488U 20068C   26194.30989738  .00000015  00000+0  40079-4 0  9994
2 46488  82.4983 330.8136 0013147 354.2585   5.8342 12.42892920262492
DEKART                  
1 46493U 20068H   26194.30245285  .00007409  00000+0  20095-3 0  9991
2 46493  97.8736 205.4537 0009050 179.3034 180.8224 15.37921332319784
