OBJECT_NAME,OBJECT_ID,EPOCH,MEAN_MOTION,ECCENTRICITY,INCLINATION,RA_OF_ASC_NODE,ARG_OF_PERICENTER,MEAN_ANOMALY,EPHEMERIS_TYPE,CLASSIFICATION_TYPE,NORAD_CAT_ID,ELEMENT_SET_NO,REV_AT_EPOCH,BSTAR,MEAN_MOTION_DOT,MEAN_MOTION_DDOT
FLORIPASAT-1,2019-093G,2026-07-13T07:19:40.137024,15.04134158,.00109215,97.7935,288.7329,349.5764,10.5233,0,U,44885,999,35657,.18553572E-3,.2512E-4,0
SHUNTIAN,2019-093H,2026-07-13T05:46:10.483968,14.95271713,.00111556,97.8009,282.2695,344.0967,15.9901,0,U,44886,999,35607,.90917377E-4,.943E-5,0
ELEKTRO-L 3,2019-095A,2026-07-13T04:34:51.667392,1.00271071,.0001126,0.3204,82.1359,20.2240,333.4139,0,U,44903,999,2396,0,-.99E-6,0
GONETS-M 14,2019-096A,2026-07-13T06:58:28.811136,12.42870784,.00143954,82.5228,68.4568,94.2317,266.0409,0,U,44905,999,29692,.54826943E-3,.86E-6,0
GONETS-M 15,2019-096B,2026-07-13T07:40:44.093856,12.42882917,.00160473,82.5248,68.9042,116.0769,244.1965,0,U,44906,999,29689,.14274376E-3,.3E-6,0
GONETS-M 16,2019-096C,2026-07-13T06:22:00.154848,12.42892103,.00109329,82.5193,67.8781,155.4291,204.7312,0,U,44907,999,29687,-.14858026E-3,-.11E-6,0
RS-44 & BREEZE-KM R/B,2019-096E,2026-07-13T06:34:24.635136,12.79748945,.02185523,82.5240,322.3706,83.4628,279.1302,0,U,44909,999,30568,-.40731225E-4,.3E-7,0
JILIN-1 KUANFU 01,2020-003A,2026-07-13T05:57:56.862720,15.10860868,.00090871,97.5021,267.6961,204.0732,156.0075,0,U,45016,999,35926,.93484959E-4,.1493E-4,0
XINGYUN-2 01,2020-028A,2026-07-13T06:50:54.519936,15.11911577,.00109216,97.4873,186.1710,109.1763,251.0651,0,U,45602,999,33878,.70927152E-4,.1152E-4,0
XINGYUN-2 02,2020-028B,2026-07-13T06:26:52.535904,15.11636423,.00109125,97.5077,199.8030,172.0760,188.0645,0,U,45603,999,33877,.78465938E-4,.1271E-4,0
HAIYANG-1D,2020-036A,2026-07-13T06:36:06.537024,14.34182208,.00040657,98.4552,135.3884,74.1614,286.0019,0,U,45721,999,31871,.98686671E-4,.234E-5,0
M2 PATHFINDER,2020-037E,2026-07-12T23:33:04.872096,15.04787964,.00130896,97.8146,25.5047,69.3329,290.9298,0,U,45727,999,32937,.68590743E-4,.905E-5,0
GAOFEN DUOMO (GFDM),2020-042A,2026-07-13T06:59:41.606592,14.76913331,.00108069,97.7740,253.2267,356.8939,3.2202,0,U,45856,999,32486,.30244788E-4,.164E-5,0
ZIYUAN 3-03 (ZY 3-03),2020-051A,2026-07-13T07:06:47.739168,15.21191404,.00027275,97.5373,261.3128,256.2584,103.8348,0,U,45939,999,33131,.7553698E-5,.98E-6,0
NEMO-HD,2020-061F,2026-07-13T07:09:26.418816,15.45112234,.00009779,97.1911,255.9938,90.8031,269.3330,0,U,46277,999,32601,.14847157E-3,.6938E-4,0
NAPA-1,2020-061BA,2026-07-13T07:08:38.037408,15.71745164,.0002522,97.2446,269.4021,177.0345,183.0934,0,U,46320,999,32583,.42888909E-3,.55487E-3,0
JILIN-1 GAOFEN 3E,2020-065D,2026-07-13T07:18:25.273152,15.67034486,.00105711,97.2216,247.5759,78.4074,281.8373,0,U,46457,999,32384,.47577752E-3,.50839E-3,0
JILIN-1 GAOFEN 3F,2020-065E,2026-07-13T07:33:45.055584,15.63785304,.00118593,97.2175,244.7880,64.4981,295.7503,0,U,46458,999,32378,.466333E-3,.4378E-3,0
JILIN-1 GAOFEN 3G,2020-065F,2026-07-13T06:43:23.838528,15.76597910,.00051636,97.2237,252.0359,283.7429,76.3262,0,U,46459,999,32404,.53727804E-3,.85992E-3,0
JILIN-1 GAOFEN 3H,2020-065G,2026-07-13T07:37:56.230752,15.72016319,.00061374,97.2181,248.2249,208.4097,151.6833,0,U,46460,999,32398,.51358673E-3,.67383E-3,0
HAIYANG-2C,2020-066A,2026-07-13T06:20:24.211104,13.83372406,.00077332,65.9957,150.3579,237.1603,122.8722,0,U,46469,999,29310,-.77972184E-4,-.167E-5,0
HJ-2A,2020-067A,2026-07-13T07:45:43.976160,14.76548429,.00039994,97.8827,272.0770,160.8198,199.3163,0,U,46478,999,31211,.87610774E-4,.561E-5,0
HJ-2B,2020-067B,2026-07-13T07:00:40.425984,14.76508044,.00019022,97.8891,273.0892,106.6607,253.4812,0,U,46479,999,31211,.1445138E-5,-.4E-6,0
GONETS-M 17,2020-068A,2026-07-13T06:58:36.536160,12.42874158,.00219013,82.5004,331.2624,340.8964,19.1292,0,U,46486,999,26240,.8725311E-5,.11E-6,0
GONETS-M 18,2020-068B,2026-07-13T08:02:10.634784,12.42875133,.0019135,82.4958,330.3430,337.3968,22.6267,0,U,46487,999,26239,.32932947E-3,.55E-6,0
GONETS-M 19,2020-068C,2026-07-13T07:26:15.133632,12.42892920,.00131471,82.4983,330.8136,354.2585,5.8342,0,U,46488,999,26249,.40078709E-4,.15E-6,0
DEKART,2020-068H,2026-07-13T07:15:31.926240,15.37921332,.000905,97.8736,205.4537,179.3034,180.8224,0,U,46493,999,31978,.20094882E-3,.7409E-4,0
